{
    "links": {
        "self": "http://www.neowsapp.com/rest/v1/neo/3843884?api_key=iIulBulltgU6a56xZRHN4H3l9WmuAYTsLGpBGhQ2"
    },
    "id": "3843884",
    "neo_reference_id": "3843884",
    "name": "(2019 SN)",
    "designation": "2019 SN",
    "nasa_jpl_url": "http://ssd.jpl.nasa.gov/sbdb.cgi?sstr=3843884",
    "absolute_magnitude_h": 25.4,
    "estimated_diameter": {
        "kilometers": {
            "estimated_diameter_min": 0.022108281,
            "estimated_diameter_max": 0.0494356193
        },
        "meters": {
            "estimated_diameter_min": 22.1082810359,
            "estimated_diameter_max": 49.435619262
        },
        "miles": {
            "estimated_diameter_min": 0.0137374447,
            "estimated_diameter_max": 0.0307178602
        },
        "feet": {
            "estimated_diameter_min": 72.5337327539,
            "estimated_diameter_max": 162.1903570994
        }
    },
    "is_potentially_hazardous_asteroid": false,
    "close_approach_data": [
        {
            "close_approach_date": "2019-09-17",
            "close_approach_date_full": "2019-Sep-17 04:10",
            "epoch_date_close_approach": 1568693400000,
            "relative_velocity": {
                "kilometers_per_second": "7.4347735123",
                "kilometers_per_hour": "26765.1846441271",
                "miles_per_hour": "16630.8448695688"
            },
            "miss_distance": {
                "astronomical": "0.049268382",
                "lunar": "19.165400598",
                "kilometers": "7370445.00554634",
                "miles": "4579782.159125892"
            },
            "orbiting_body": "Earth"
        }
    ],
    "orbital_data": {
        "orbit_id": "1",
        "orbit_determination_date": "2019-09-20 00:42:04",
        "first_observation_date": "2019-09-18",
        "last_observation_date": "2019-09-20",
        "data_arc_in_days": 2,
        "observations_used": 20,
        "orbit_uncertainty": "8",
        "minimum_orbit_intersection": ".0485958",
        "jupiter_tisserand_invariant": "4.302",
        "epoch_osculation": "2458745.5",
        "eccentricity": ".370252739274912",
        "semi_major_axis": "1.582895174525191",
        "inclination": "7.806199764811578",
        "ascending_node_longitude": "340.3963111717061",
        "orbital_period": "727.405632491797",
        "perihelion_distance": ".9968239001721989",
        "perihelion_argument": "46.29724087337904",
        "aphelion_distance": "2.168966448878182",
        "perihelion_time": "2458772.434954272546",
        "mean_anomaly": "346.6696336885652",
        "mean_motion": ".4949095579130806",
        "equinox": "J2000",
        "orbit_class": {
            "orbit_class_type": "APO",
            "orbit_class_description": "Near-Earth asteroid orbits which cross the Earth’s orbit similar to that of 1862 Apollo",
            "orbit_class_range": "a (semi-major axis) > 1.0 AU; q (perihelion) < 1.017 AU"
        }
    },
    "is_sentry_object": false
}